[{"OBJECT_NAME":"STARLINK-2343","OBJECT_ID":"2021-021AA","EPOCH":"2026-03-10T00:00:02.999808","MEAN_MOTION":15.26280353,"ECCENTRICITY":0.0001319,"INCLINATION":53.1422,"RA_OF_ASC_NODE":279.4171,"ARG_OF_PERICENTER":82.2814,"MEAN_ANOMALY":282.8013,"EPHEMERIS_TYPE":0,"CLASSIFICATION_TYPE":"U","NORAD_CAT_ID":47884,"ELEMENT_SET_NO":999,"REV_AT_EPOCH":579,"BSTAR":0.057497756,"MEAN_MOTION_DOT":0.01671594,"MEAN_MOTION_DDOT":0},{"OBJECT_NAME":"UNISAT-7","OBJECT_ID":"2021-022P","EPOCH":"2026-03-09T16:28:31.560096","MEAN_MOTION":15.37617151,"ECCENTRICITY":0.00117035,"INCLINATION":97.3969,"RA_OF_ASC_NODE":332.7353,"ARG_OF_PERICENTER":74.8463,"MEAN_ANOMALY":285.4075,"EPHEMERIS_TYPE":0,"CLASSIFICATION_TYPE":"U","NORAD_CAT_ID":47945,"ELEMENT_SET_NO":999,"REV_AT_EPOCH":27455,"BSTAR":0.000470835,"MEAN_MOTION_DOT":0.00017358,"MEAN_MOTION_DDOT":0}]
